NORAD_CAT_ID,OBJECT_NAME,OBJECT_TYPE,EPOCH,MEAN_MOTION,ECCENTRICITY,INCLINATION,RA_OF_ASC_NODE,ARG_OF_PERICENTER,MEAN_ANOMALY,BSTAR,MEAN_MOTION_DOT,MEAN_MOTION_DDOT,TLE_LINE0,TLE_LINE1,TLE_LINE2,SEMIMAJOR_AXIS,PERIOD,APOGEE,PERIGEE,DECAYED
49172.0,STARLINK-3091,PAYLOAD,2022-01-15 22:00:01,15.69856422,0.0003657,69.999,138.821,288.2318,13.3897,-0.001077,-0.00127422,0.0,0 STARLINK-3091,1 49172U 21082AU  22015.91668981 -.00127422  00000-0 -10770-2 0  9991,2 49172  69.9990 138.8210 0003657 288.2318  13.3897 15.69856422 19529,6737.445,91.728,361.774,356.846,0.0
49172.0,STARLINK-3091,PAYLOAD,2022-01-16 14:00:01,15.6971145,0.0003491,69.9992,136.9471,289.2431,178.658,-0.00044844,-0.00053325,0.0,0 STARLINK-3091,1 49172U 21082AU  22016.58334491 -.00053325  00000-0 -44844-3 0  9991,2 49172  69.9992 136.9471 0003491 289.2431 178.6580 15.69711450 19639,6737.86,91.737,362.077,357.372,0.0
49172.0,STARLINK-3091,PAYLOAD,2022-01-16 22:00:00,15.69699404,0.0003528,69.9991,136.0101,290.8877,260.0552,-0.00017278,-0.00020745,0.0,0 STARLINK-3091,1 49172U 21082AU  22016.91667824 -.00020745  00000-0 -17278-3 0  9998,2 49172  69.9991 136.0101 0003528 290.8877 260.0552 15.69699404  3690,6737.894,91.737,362.136,357.38199999999995,0.0
49172.0,STARLINK-3091,PAYLOAD,2022-01-17 06:00:00,15.69677668,0.0003458999999999,69.9994,135.0732,285.2386,348.77,0.00078442,0.00094209,0.0,0 STARLINK-3091,1 49172U 21082AU  22017.25001157  .00094209  00000-0  78442-3 0  9991,2 49172  69.9994 135.0732 0003459 285.2386 348.7700 15.69677668 19737,6737.956,91.739,362.152,357.491,0.0
49172.0,STARLINK-3091,PAYLOAD,2022-01-17 14:00:01,15.69726187,0.0003586,69.9999,134.1363,289.715,67.3709,0.0001924,0.00022797,0.0,0 STARLINK-3091,1 49172U 21082AU  22017.58334491  .00022797  00000-0  19240-3 0  9991,2 49172  69.9999 134.1363 0003586 289.7150  67.3709 15.69726187 19780,6737.816999999999,91.736,362.099,357.266,0.0
49172.0,STARLINK-3091,PAYLOAD,2022-01-17 22:00:00,15.69769188,0.0003606,69.9995,133.1994,290.9714,149.2116,-0.00020988,-0.00025214,0.0,0 STARLINK-3091,1 49172U 21082AU  22017.91667824 -.00025214  00000-0 -20988-3 0  9997,2 49172  69.9995 133.1994 0003606 290.9714 149.2116 15.69769188  3680,6737.694,91.733,361.989,357.13,0.0
49172.0,STARLINK-3091,PAYLOAD,2022-01-18 14:00:01,15.69804737,0.0003751,69.9996,131.3258,290.1679,316.3118,-0.00043798,-0.00052296,0.0,0 STARLINK-3091,1 49172U 21082AU  22018.58334491 -.00052296  00000-0 -43798-3 0  9996,2 49172  69.9996 131.3258 0003751 290.1679 316.3118 15.69804737  3675,6737.593000000003,91.731,361.985,356.93,0.0
49172.0,STARLINK-3091,PAYLOAD,2022-01-18 22:00:00,15.69773213,0.0003868,69.9994,130.3887,290.6142,39.0394,-0.000234,-0.00028084,0.0,0 STARLINK-3091,1 49172U 21082AU  22018.91667824 -.00028084  00000-0 -23400-3 0  9998,2 49172  69.9994 130.3887 0003868 290.6142  39.0394 15.69773213 19990,6737.683000000001,91.733,362.154,356.94199999999995,0.0
49172.0,STARLINK-3091,PAYLOAD,2022-01-19 14:00:01,15.69755185,0.000371,70.0002,128.5175,291.3496,204.6208,-9.5622e-05,-0.00011615,0.0,0 STARLINK-3091,1 49172U 21082AU  22019.58334491 -.00011615  00000-0 -95622-4 0  9991,2 49172  70.0002 128.5175 0003710 291.3496 204.6208 15.69755185 20105,6737.734,91.734,362.099,357.1,0.0
49172.0,STARLINK-3091,PAYLOAD,2022-01-19 22:00:00,15.6953436,0.0003669,70.0,127.5831,290.0352,289.1366,-0.0014367,-0.00166883,0.0,0 STARLINK-3091,1 49172U 21082AU  22019.91667824 -.00166883  00000-0 -14367-2 0  9990,2 49172  70.0000 127.5831 0003669 290.0352 289.1366 15.69534360 20159,6738.366,91.747,362.704,357.759,0.0
49172.0,STARLINK-3091,PAYLOAD,2022-01-20 14:00:01,15.69137285,0.0004138,70.0,125.7127,295.126,89.4847,-0.0061656,-0.00663943,0.0,0 STARLINK-3091,1 49172U 21082AU  22020.58334491 -.00663943  00000-0 -61656-2 0  9998,2 49172  70.0000 125.7127 0004138 295.1260  89.4847 15.69137285 20265,6739.503000000002,91.77,364.157,358.579,0.0
49172.0,STARLINK-3091,PAYLOAD,2022-01-20 22:00:00,15.68668936,0.0003661,69.9997,124.7761,284.9807,181.7377,-0.0062685,-0.00662102,0.0,0 STARLINK-3091,1 49172U 21082AU  22020.91667824 -.00662102  00000-0 -62685-2 0  9993,2 49172  69.9997 124.7761 0003661 284.9807 181.7377 15.68668936  3674,6740.845,91.798,365.177,360.242,0.0
49172.0,STARLINK-3091,PAYLOAD,2022-01-21 14:00:01,15.67648546,0.0003585,70.0003,122.9043,273.1693,356.12699999999984,-0.0053193999999999,-0.00546314,0.0,0 STARLINK-3091,1 49172U 21082AU  22021.58334491 -.00546314  00000-0 -53194-2 0  9999,2 49172  70.0003 122.9043 0003585 273.1693 356.1270 15.67648546 20411,6743.769,91.857,368.052,363.217,0.0
49172.0,STARLINK-3091,PAYLOAD,2022-01-21 22:00:00,15.67266235,0.0003522,69.9999,121.9708,271.898,77.7792,-0.0066375,-0.00661922,0.0,0 STARLINK-3091,1 49172U 21082AU  22021.91667824 -.00661922  00000-0 -66375-2 0  9993,2 49172  69.9999 121.9708 0003522 271.8980  77.7792 15.67266235 20465,6744.866,91.88,369.106,364.355,0.0
49172.0,STARLINK-3091,PAYLOAD,2022-01-22 12:00:00,15.66448197,0.000375,70.0001,120.3373,284.5634,114.5094,-0.0068665,-0.00662438,0.0,0 STARLINK-3091,1 49172U 21082AU  22022.50001157 -.00662438  00000-0 -68665-2 0  9997,2 49172  70.0001 120.3373 0003750 284.5634 114.5094 15.66448197  3670,6747.214,91.928,371.609,366.549,0.0
49172.0,STARLINK-3091,PAYLOAD,2022-01-22 14:00:01,15.66329954,0.0003617,70.0,120.1041,287.148,221.6986,-0.0068679,-0.00659604,0.0,0 STARLINK-3091,1 49172U 21082AU  22022.58334491 -.00659604  00000-0 -68679-2 0  9991,2 49172  70.0000 120.1041 0003617 287.1480 221.6986 15.66329954  3689,6747.554,91.935,371.859,366.978,0.0
49172.0,STARLINK-3091,PAYLOAD,2022-01-23 06:00:00,15.6539586,0.0003539,70.0001,118.2396,279.3269,26.4458,-0.0071391999999999,-0.00660308,0.0,0 STARLINK-3091,1 49172U 21082AU  22023.25001157 -.00660308  00000-0 -71392-2 0  9995,2 49172  70.0001 118.2396 0003539 279.3269  26.4458 15.65395860 20673,6750.238,91.99,374.491,369.714,0.0
49172.0,STARLINK-3091,PAYLOAD,2022-01-23 14:00:01,15.64929795,0.0003681,70.0001,117.3084,284.0357,99.3589,-0.0073065,-0.00663122,0.0,0 STARLINK-3091,1 49172U 21082AU  22023.58334491 -.00663122  00000-0 -73065-2 0  9997,2 49172  70.0001 117.3084 0003681 284.0357  99.3589 15.64929795  3681,6751.578,92.017,375.92800000000005,370.957,0.0
49172.0,STARLINK-3091,PAYLOAD,2022-01-23 22:00:00,15.64461049,0.0003481,69.9998,116.3778,274.902,185.555,-0.0074199,-0.00661073,0.0,0 STARLINK-3091,1 49172U 21082AU  22023.91667824 -.00661073  00000-0 -74199-2 0  9995,2 49172  69.9998 116.3778 0003481 274.9020 185.5550 15.64461049  3684,6752.926,92.044,377.142,372.441,0.0
49172.0,STARLINK-3091,PAYLOAD,2022-01-24 06:00:02,15.63993035,0.0003485,70.0003,115.448,283.1092,253.9137,-0.0075351,-0.00659146,0.0,0 STARLINK-3091,1 49172U 21082AU  22024.25002315 -.00659146  00000-0 -75351-2 0  9990,2 49172  70.0003 115.4480 0003485 283.1092 253.9137 15.63993035 20830,6754.273,92.072,378.492,373.784,0.0
49172.0,STARLINK-3091,PAYLOAD,2022-01-24 14:00:01,15.63524159,0.0003474,70.0,114.5187,283.4389,329.4602,-0.0076628999999999,-0.00658105,0.0,0 STARLINK-3091,1 49172U 21082AU  22024.58334491 -.00658105  00000-0 -76629-2 0  9992,2 49172  70.0000 114.5187 0003474 283.4389 329.4602 15.63524159  3688,6755.624,92.1,379.835,375.142,0.0
49172.0,STARLINK-3091,PAYLOAD,2022-01-24 22:00:00,15.63058958,0.0003516,69.9998,113.59,275.4858,52.7926,-0.007858,-0.00662293,0.0,0 STARLINK-3091,1 49172U 21082AU  22024.91667824 -.00662293  00000-0 -78580-2 0  9999,2 49172  69.9998 113.5900 0003516 275.4858  52.7926 15.63058958  3686,6756.964,92.127,381.205,376.453,0.0
49172.0,STARLINK-3091,PAYLOAD,2022-01-25 06:00:00,15.62589728,0.000364,70.0,112.6622,281.8602,121.2375,-0.0079516999999999,-0.00658326,0.0,0 STARLINK-3091,1 49172U 21082AU  22025.25001157 -.00658326  00000-0 -79517-2 0  9991,2 49172  70.0000 112.6622 0003640 281.8602 121.2375 15.62589728 20996,6758.316999999999,92.155,382.642,377.722,0.0
49172.0,STARLINK-3091,PAYLOAD,2022-01-25 14:00:01,15.621234,0.0003688,70.0001,111.7348,288.2479,189.1079,-0.0081239,-0.006603,0.0,0 STARLINK-3091,1 49172U 21082AU  22025.58334491 -.00660300  00000-0 -81239-2 0  9996,2 49172  70.0001 111.7348 0003688 288.2479 189.1079 15.62123400  3678,6759.6619999999975,92.182,384.019,379.034,0.0
49172.0,STARLINK-3091,PAYLOAD,2022-01-25 22:00:00,15.61657007,0.0003362,69.9999,110.808,275.9723,275.0813,-0.0083068,-0.00662746,0.0,0 STARLINK-3091,1 49172U 21082AU  22025.91667824 -.00662746  00000-0 -83068-2 0  9990,2 49172  69.9999 110.8080 0003362 275.9723 275.0813 15.61657007  3707,6761.007,92.21,385.145,380.599,0.0
49172.0,STARLINK-3091,PAYLOAD,2022-01-26 06:00:00,15.61188701,0.0003443,70.0002,109.8821,278.7991,345.3915,-0.0084185,-0.00659834,0.0,0 STARLINK-3091,1 49172U 21082AU  22026.25001157 -.00659834  00000-0 -84185-2 0  9994,2 49172  70.0002 109.8821 0003443 278.7991 345.3915 15.61188701 21146,6762.359,92.237,386.55300000000005,381.896,0.0
49172.0,STARLINK-3091,PAYLOAD,2022-01-26 14:00:01,15.60720993,0.0003608,70.0,108.9568,283.3973,53.3704,-0.0085843999999999,-0.00660765,0.0,0 STARLINK-3091,1 49172U 21082AU  22026.58334491 -.00660765  00000-0 -85844-2 0  9998,2 49172  70.0000 108.9568 0003608 283.3973  53.3704 15.60720993  3693,6763.71,92.265,388.016,383.135,0.0
49172.0,STARLINK-3091,PAYLOAD,2022-01-26 22:00:00,15.602530800000002,0.0003562,69.9998,108.032,276.8113,131.9727,-0.0087342,-0.00660329,0.0,0 STARLINK-3091,1 49172U 21082AU  22026.91667824 -.00660329  00000-0 -87342-2 0  9995,2 49172  69.9998 108.0320 0003562 276.8113 131.9727 15.60253080  3680,6765.062,92.293,389.337,384.518,0.0
49172.0,STARLINK-3091,PAYLOAD,2022-01-27 04:00:00,15.59900749,0.0003663,70.0,107.339,282.9139,89.5146,-0.0088084,-0.00657278,0.0,0 STARLINK-3091,1 49172U 21082AU  22027.16667824 -.00657278  00000-0 -88084-2 0  9996,2 49172  70.0000 107.3390 0003663 282.9139  89.5146 15.59900749 21293,6766.081,92.314,390.424,385.468,0.0
